SL-3 R/B                
1 13403U 82079B   26087.56468705  .00006712  00000+0  26512-3 0  9995
2 13403  81.1485 170.7910 0025506 102.7172 257.6915 15.25048561380578
SL-14 R/B               
1 13553U 82092B   26087.57506605  .00000435  00000+0  46068-4 0  9994
2 13553  82.5659 123.7325 0019031 236.0331 284.4121 14.86682970331739
SL-3 R/B                
1 13819U 83010B   26087.58723866  .00017270  00000+0  33978-3 0  9991
2 13819  81.1057 339.0699 0016017 346.6549  13.4270 15.46983791360860
SL-3 R/B                
1 14208U 83075B   26087.54717141  .00013015  00000+0  33794-3 0  9999
2 14208  97.6140  92.8448 0022201 157.4351 202.7876 15.38853093333053
COSMOS 1536             
1 14699U 84013A   26087.49898577  .00007509  00000+0  30736-3 0  9997
2 14699  82.5414  89.1443 0013264 209.0430 151.0071 15.24073479275481
SL-14 R/B               
1 14820U 84027B   26087.48016580  .00000589  00000+0  64593-4 0  9993
2 14820  82.5416 227.3877 0016469 271.3673  88.5657 14.85995917250424
SL-8 R/B                
1 15483U 85006B   26087.64350796  .00000313  00000+0  11246-3 0  9996
2 15483  74.0452 226.2691 0017682 138.6366 232.8734 14.37796602156758
SL-12 R/B(2)            
1 15772U 85042D   26087.63879314  .00000040  00000+0  39281-4 0  9995
2 15772  71.1086  47.6917 0032840  96.7379  75.1663 14.21987729117084
SL-14 R/B               
1 15945U 85069B   26087.25728182  .00000540  00000+0  58117-4 0  9994
2 15945  82.5305   7.4783 0019994 127.8899 232.4130 14.86453014175592
SL-16 R/B               
1 16182U 85097B   26087.49724220 -.00000056  00000+0 -39165-5 0  9991
2 16182  71.0008 100.9570 0009461 237.8513 234.8751 14.16603578 89892
SL-14 R/B               
1 16496U 86006B   26087.49877301  .00000999  00000+0  10350-3 0  9996
2 16496  82.5251 242.0304 0075780 209.4024 150.2921 14.86844334152007
COSMOS 1743             
1 16719U 86034A   26087.38102754  .00050210  00000+0  61676-3 0  9994
2 16719  82.5300  54.1900 0004183 172.5295 187.6025 15.60074794183161
