CCSDS_OMM_VERS = 2.0
CREATION_DATE  = 
ORIGINATOR     = 

OBJECT_NAME    = SL-3 R/B
OBJECT_ID      = 1982-079B
CENTER_NAME    = EARTH
REF_FRAME      = TEME
TIME_SYSTEM    = UTC
MEAN_ELEMENT_THEORY = SGP/SGP4

EPOCH          = 2026-03-28T13:33:08.961120
MEAN_MOTION    = 15.25048561
ECCENTRICITY   = .00255065
INCLINATION    = 81.1485
RA_OF_ASC_NODE = 170.7910
ARG_OF_PERICENTER = 102.7172
MEAN_ANOMALY   = 257.6915

EPHEMERIS_TYPE = 0
CLASSIFICATION_TYPE = U
NORAD_CAT_ID   = 13403
ELEMENT_SET_NO = 999
REV_AT_EPOCH   = 38057
BSTAR          = .26512002E-3
MEAN_MOTION_DOT = .6712E-4
MEAN_MOTION_DDOT = 0

CCSDS_OMM_VERS = 2.0
CREATION_DATE  = 
ORIGINATOR     = 

OBJECT_NAME    = SL-14 R/B
OBJECT_ID      = 1982-092B
CENTER_NAME    = EARTH
REF_FRAME      = TEME
TIME_SYSTEM    = UTC
MEAN_ELEMENT_THEORY = SGP/SGP4

EPOCH          = 2026-03-28T13:48:05.706720
MEAN_MOTION    = 14.86682970
ECCENTRICITY   = .00190317
INCLINATION    = 82.5659
RA_OF_ASC_NODE = 123.7325
ARG_OF_PERICENTER = 236.0331
MEAN_ANOMALY   = 284.4121

EPHEMERIS_TYPE = 0
CLASSIFICATION_TYPE = U
NORAD_CAT_ID   = 13553
ELEMENT_SET_NO = 999
REV_AT_EPOCH   = 33173
BSTAR          = .46068414E-4
MEAN_MOTION_DOT = .435E-5
MEAN_MOTION_DDOT = 0

CCSDS_OMM_VERS = 2.0
CREATION_DATE  = 
ORIGINATOR     = 

OBJECT_NAME    = SL-3 R/B
OBJECT_ID      = 1983-010B
CENTER_NAME    = EARTH
REF_FRAME      = TEME
TIME_SYSTEM    = UTC
MEAN_ELEMENT_THEORY = SGP/SGP4

EPOCH          = 2026-03-28T14:05:37.420224
MEAN_MOTION    = 15.46983791
ECCENTRICITY   = .00160177
INCLINATION    = 81.1057
RA_OF_ASC_NODE = 339.0699
ARG_OF_PERICENTER = 346.6549
MEAN_ANOMALY   = 13.4270

EPHEMERIS_TYPE = 0
CLASSIFICATION_TYPE = U
NORAD_CAT_ID   = 13819
ELEMENT_SET_NO = 999
REV_AT_EPOCH   = 36086
BSTAR          = .33977592E-3
MEAN_MOTION_DOT = .1727E-3
MEAN_MOTION_DDOT = 0

CCSDS_OMM_VERS = 2.0
CREATION_DATE  = 
ORIGINATOR     = 

OBJECT_NAME    = SL-3 R/B
OBJECT_ID      = 1983-075B
CENTER_NAME    = EARTH
REF_FRAME      = TEME
TIME_SYSTEM    = UTC
MEAN_ELEMENT_THEORY = SGP/SGP4

EPOCH          = 2026-03-28T13:07:55.609824
MEAN_MOTION    = 15.38853093
ECCENTRICITY   = .00222015
INCLINATION    = 97.6140
RA_OF_ASC_NODE = 92.8448
ARG_OF_PERICENTER = 157.4351
MEAN_ANOMALY   = 202.7876

EPHEMERIS_TYPE = 0
CLASSIFICATION_TYPE = U
NORAD_CAT_ID   = 14208
ELEMENT_SET_NO = 999
REV_AT_EPOCH   = 33305
BSTAR          = .33793927E-3
MEAN_MOTION_DOT = .13015E-3
MEAN_MOTION_DDOT = 0

CCSDS_OMM_VERS = 2.0
CREATION_DATE  = 
ORIGINATOR     = 

OBJECT_NAME    = COSMOS 1536
OBJECT_ID      = 1984-013A
CENTER_NAME    = EARTH
REF_FRAME      = TEME
TIME_SYSTEM    = UTC
MEAN_ELEMENT_THEORY = SGP/SGP4

EPOCH          = 2026-03-28T11:58:32.370528
MEAN_MOTION    = 15.24073479
ECCENTRICITY   = .0013264
INCLINATION    = 82.5414
RA_OF_ASC_NODE = 89.1443
ARG_OF_PERICENTER = 209.0430
MEAN_ANOMALY   = 151.0071

EPHEMERIS_TYPE = 0
CLASSIFICATION_TYPE = U
NORAD_CAT_ID   = 14699
ELEMENT_SET_NO = 999
REV_AT_EPOCH   = 27548
BSTAR          = .30735603E-3
MEAN_MOTION_DOT = .7509E-4
MEAN_MOTION_DDOT = 0

CCSDS_OMM_VERS = 2.0
CREATION_DATE  = 
ORIGINATOR     = 

OBJECT_NAME    = SL-14 R/B
OBJECT_ID      = 1984-027B
CENTER_NAME    = EARTH
REF_FRAME      = TEME
TIME_SYSTEM    = UTC
MEAN_ELEMENT_THEORY = SGP/SGP4

EPOCH          = 2026-03-28T11:31:26.325120
MEAN_MOTION    = 14.85995917
ECCENTRICITY   = .00164698
INCLINATION    = 82.5416
RA_OF_ASC_NODE = 227.3877
ARG_OF_PERICENTER = 271.3673
MEAN_ANOMALY   = 88.5657

EPHEMERIS_TYPE = 0
CLASSIFICATION_TYPE = U
NORAD_CAT_ID   = 14820
ELEMENT_SET_NO = 999
REV_AT_EPOCH   = 25042
BSTAR          = .64593357E-4
MEAN_MOTION_DOT = .589E-5
MEAN_MOTION_DDOT = 0

CCSDS_OMM_VERS = 2.0
CREATION_DATE  = 
ORIGINATOR     = 

OBJECT_NAME    = SL-8 R/B
OBJECT_ID      = 1985-006B
CENTER_NAME    = EARTH
REF_FRAME      = TEME
TIME_SYSTEM    = UTC
MEAN_ELEMENT_THEORY = SGP/SGP4

EPOCH          = 2026-03-28T15:26:39.087744
MEAN_MOTION    = 14.37796602
ECCENTRICITY   = .0017682
INCLINATION    = 74.0452
RA_OF_ASC_NODE = 226.2691
ARG_OF_PERICENTER = 138.6366
MEAN_ANOMALY   = 232.8734

EPHEMERIS_TYPE = 0
CLASSIFICATION_TYPE = U
NORAD_CAT_ID   = 15483
ELEMENT_SET_NO = 999
REV_AT_EPOCH   = 15675
BSTAR          = .11245815E-3
MEAN_MOTION_DOT = .313E-5
MEAN_MOTION_DDOT = 0

CCSDS_OMM_VERS = 2.0
CREATION_DATE  = 
ORIGINATOR     = 

OBJECT_NAME    = SL-12 R/B(2)
OBJECT_ID      = 1985-042D
CENTER_NAME    = EARTH
REF_FRAME      = TEME
TIME_SYSTEM    = UTC
MEAN_ELEMENT_THEORY = SGP/SGP4

EPOCH          = 2026-03-28T15:19:51.727296
MEAN_MOTION    = 14.21987729
ECCENTRICITY   = .00328404
INCLINATION    = 71.1086
RA_OF_ASC_NODE = 47.6917
ARG_OF_PERICENTER = 96.7379
MEAN_ANOMALY   = 75.1663

EPHEMERIS_TYPE = 0
CLASSIFICATION_TYPE = U
NORAD_CAT_ID   = 15772
ELEMENT_SET_NO = 999
REV_AT_EPOCH   = 11708
BSTAR          = .39280611E-4
MEAN_MOTION_DOT = .4E-6
MEAN_MOTION_DDOT = 0

CCSDS_OMM_VERS = 2.0
CREATION_DATE  = 
ORIGINATOR     = 

OBJECT_NAME    = SL-14 R/B
OBJECT_ID      = 1985-069B
CENTER_NAME    = EARTH
REF_FRAME      = TEME
TIME_SYSTEM    = UTC
MEAN_ELEMENT_THEORY = SGP/SGP4

EPOCH          = 2026-03-28T06:10:29.149248
MEAN_MOTION    = 14.86453014
ECCENTRICITY   = .0019994
INCLINATION    = 82.5305
RA_OF_ASC_NODE = 7.4783
ARG_OF_PERICENTER = 127.8899
MEAN_ANOMALY   = 232.4130

EPHEMERIS_TYPE = 0
CLASSIFICATION_TYPE = U
NORAD_CAT_ID   = 15945
ELEMENT_SET_NO = 999
REV_AT_EPOCH   = 17559
BSTAR          = .58117E-4
MEAN_MOTION_DOT = .54E-5
MEAN_MOTION_DDOT = 0

CCSDS_OMM_VERS = 2.0
CREATION_DATE  = 
ORIGINATOR     = 

OBJECT_NAME    = SL-16 R/B
OBJECT_ID      = 1985-097B
CENTER_NAME    = EARTH
REF_FRAME      = TEME
TIME_SYSTEM    = UTC
MEAN_ELEMENT_THEORY = SGP/SGP4

EPOCH          = 2026-03-28T11:56:01.726080
MEAN_MOTION    = 14.16603578
ECCENTRICITY   = .00094616
INCLINATION    = 71.0008
RA_OF_ASC_NODE = 100.9570
ARG_OF_PERICENTER = 237.8513
MEAN_ANOMALY   = 234.8751

EPHEMERIS_TYPE = 0
CLASSIFICATION_TYPE = U
NORAD_CAT_ID   = 16182
ELEMENT_SET_NO = 999
REV_AT_EPOCH   = 8989
BSTAR          = -.3916543E-5
MEAN_MOTION_DOT = -.56E-6
MEAN_MOTION_DDOT = 0

CCSDS_OMM_VERS = 2.0
CREATION_DATE  = 
ORIGINATOR     = 

OBJECT_NAME    = SL-14 R/B
OBJECT_ID      = 1986-006B
CENTER_NAME    = EARTH
REF_FRAME      = TEME
TIME_SYSTEM    = UTC
MEAN_ELEMENT_THEORY = SGP/SGP4

EPOCH          = 2026-03-28T11:58:13.988064
MEAN_MOTION    = 14.86844334
ECCENTRICITY   = .007578
INCLINATION    = 82.5251
RA_OF_ASC_NODE = 242.0304
ARG_OF_PERICENTER = 209.4024
MEAN_ANOMALY   = 150.2921

EPHEMERIS_TYPE = 0
CLASSIFICATION_TYPE = U
NORAD_CAT_ID   = 16496
ELEMENT_SET_NO = 999
REV_AT_EPOCH   = 15200
BSTAR          = .10350131E-3
MEAN_MOTION_DOT = .999E-5
MEAN_MOTION_DDOT = 0

CCSDS_OMM_VERS = 2.0
CREATION_DATE  = 
ORIGINATOR     = 

OBJECT_NAME    = COSMOS 1743
OBJECT_ID      = 1986-034A
CENTER_NAME    = EARTH
REF_FRAME      = TEME
TIME_SYSTEM    = UTC
MEAN_ELEMENT_THEORY = SGP/SGP4

EPOCH          = 2026-03-28T09:08:40.779456
MEAN_MOTION    = 15.60074794
ECCENTRICITY   = .00041837
INCLINATION    = 82.5300
RA_OF_ASC_NODE = 54.1900
ARG_OF_PERICENTER = 172.5295
MEAN_ANOMALY   = 187.6025

EPHEMERIS_TYPE = 0
CLASSIFICATION_TYPE = U
NORAD_CAT_ID   = 16719
ELEMENT_SET_NO = 999
REV_AT_EPOCH   = 18316
BSTAR          = .61676295E-3
MEAN_MOTION_DOT = .5021E-3
MEAN_MOTION_DDOT = 0

